H1 CPF 01  gfz 2021 04 01 12  5912 terrasarx 
H2 0702601  6201 31698    2021 04 01 12 59 42 2021 04 06 00 00 42   120 1 1  0 0 0
H9
10 0 59309  32382.000000  0    4845482.213  -4871718.582   -512724.867
10 0 59309  32502.000000  0    4629795.427  -4906214.958  -1408285.371
10 0 59309  32622.000000  0    4333473.154  -4850585.735  -2279089.369
10 0 59309  32742.000000  0    3963331.831  -4704522.563  -3109861.298
10 0 59309  32862.000000  0    3527464.614  -4469432.033  -3886060.586
10 0 59309  32982.000000  0    3035062.197  -4148423.219  -4594137.226
10 0 59309  33102.000000  0    2496215.176  -3746260.949  -5221765.832
10 0 59309  33222.000000  0    1921703.434  -3269287.366  -5758052.282
10 0 59309  33342.000000  0    1322779.725  -2725315.962  -6193712.374
10 0 59309  33462.000000  0     710949.478  -2123499.439  -6521222.764
10 0 59309  33582.000000  0      97751.013  -1474172.100  -6734940.577
10 0 59309  33702.000000  0    -505458.356   -788671.385  -6831190.033
10 0 59309  33822.000000  0   -1087707.094    -79142.289  -6808317.997
10 0 59309  33942.000000  0   -1638604.301    641672.881  -6666718.767
10 0 59309  34062.000000  0   -2148520.893   1360657.350  -6408827.667
10 0 59309  34182.000000  0   -2608754.057   2064552.661  -6039083.694
10 0 59309  34302.000000  0   -3011674.599   2740197.726  -5563862.016
10 0 59309  34422.000000  0   -3350854.536   3374772.661  -4991375.528
10 0 59309  34542.000000  0   -3621173.663   3956042.526  -4331544.623
10 0 59309  34662.000000  0   -3818901.330   4472596.143  -3595834.821
10 0 59309  34782.000000  0   -3941750.279   4914074.238  -2797065.377
10 0 59309  34902.000000  0   -3988903.385   5271382.846  -1949192.471
10 0 59309  35022.000000  0   -3961012.612   5536887.465  -1067068.283
10 0 59309  35142.000000  0   -3860167.908   5704583.138   -166178.563
10 0 59309  35262.000000  0   -3689835.878   5770232.155    737634.923
10 0 59309  35382.000000  0   -3454771.270   5731468.477   1628460.796
10 0 59309  35502.000000  0   -3160900.687   5587865.252   2490608.800
10 0 59309  35622.000000  0   -2815181.495   5340960.469   3308895.984
10 0 59309  35742.000000  0   -2425441.794   4994242.655   4068919.997
10 0 59309  35862.000000  0   -2000205.310   4553098.497   4757316.437
10 0 59309  35982.000000  0   -1548505.833   4024723.024   5361995.278
10 0 59309  36102.000000  0   -1079694.683   3417994.383   5872352.187
10 0 59309  36222.000000  0    -603246.823   2743316.468   6279449.886
10 0 59309  36342.000000  0    -128569.938   2012433.844   6576168.311
10 0 59309  36462.000000  0     335180.127   1238223.719   6757323.254
10 0 59309  36582.000000  0     779275.344    434466.192   6819751.613
10 0 59309  36702.000000  0    1195578.603   -384400.691   6762362.293
10 0 59309  36822.000000  0    1576691.935  -1203539.413   6586155.223
10 0 59309  36942.000000  0    1916087.968  -2007981.287   6294205.097
10 0 59309  37062.000000  0    2208222.353  -2782899.839   5891612.002
10 0 59309  37182.000000  0    2448625.794  -3513885.930   5385417.663
10 0 59309  37302.000000  0    2633973.410  -4187218.715   4784487.492
10 0 59309  37422.000000  0    2762130.585  -4790127.897   4099361.362
10 0 59309  37542.000000  0    2832175.342  -5311042.990   3342072.442
10 0 59309  37662.000000  0    2844394.888  -5739823.254   2525937.494
10 0 59309  37782.000000  0    2800256.574  -6067963.393   1665320.843
10 0 59309  37902.000000  0    2702353.289  -6288767.552    775377.279
10 0 59309  38022.000000  0    2554326.652  -6397490.289   -128219.849
10 0 59309  38142.000000  0    2360768.036  -6391440.558  -1029563.379
10 0 59309  38262.000000  0    2127099.109  -6270042.331  -1912802.804
10 0 59309  38382.000000  0    1859435.945  -6034852.928  -2762430.340
10 0 59309  38502.000000  0    1564439.496  -5689538.561  -3563560.827
10 0 59309  38622.000000  0    1249157.665  -5239804.961  -4302193.916
10 0 59309  38742.000000  0     920864.841  -4693291.441  -4965456.849
10 0 59309  38862.000000  0     586900.282  -4059429.533  -5541823.202
10 0 59309  38982.000000  0     254509.689  -3349270.028  -6021305.013
10 0 59309  39102.000000  0     -69306.623  -2575282.312  -6395615.133
10 0 59309  39222.000000  0    -377935.912  -1751131.092  -6658298.890
10 0 59309  39342.000000  0    -665283.151   -891434.766  -6804834.691
10 0 59309  39462.000000  0    -925886.769    -11508.750  -6832704.036
10 0 59309  39582.000000  0   -1155019.064    872902.201  -6741428.941
10 0 59309  39702.000000  0   -1348769.875   1745898.219  -6532578.907
10 0 59309  39822.000000  0   -1504111.818   2591702.892  -6209746.578
10 0 59309  39942.000000  0   -1618947.117   3394942.584  -5778494.250
10 0 59309  40062.000000  0   -1692135.222   4140923.778  -5246267.699
10 0 59309  40182.000000  0   -1723500.268   4815902.681  -4622279.351
10 0 59309  40302.000000  0   -1713818.824   5407343.781  -3917359.583
10 0 59309  40422.000000  0   -1664786.903   5904160.118  -3143777.278
10 0 59309  40542.000000  0   -1578966.617   6296930.348  -2315033.343
10 0 59309  40662.000000  0   -1459714.293   6578089.326  -1445629.120
10 0 59309  40782.000000  0   -1311090.515   6742084.813   -550812.065
10 0 59309  40902.000000  0   -1137754.568   6785497.290    353694.194
10 0 59309  41022.000000  0    -944844.968   6707119.853   1251973.528
10 0 59309  41142.000000  0    -737849.808   6507991.544   2128208.597
10 0 59309  41262.000000  0    -522469.813   6191382.569   2966968.556
10 0 59309  41382.000000  0    -304478.120   5762736.218   3753487.009
10 0 59309  41502.000000  0     -89580.974   5229569.772   4473926.614
10 0 59309  41622.000000  0     116718.362   4601333.662   5115629.038
10 0 59309  41742.000000  0     309250.024   3889229.918   5667334.562
10 0 59309  41862.000000  0     483297.021   3106005.811   6119375.548
10 0 59309  41982.000000  0     634701.955   2265717.064   6463841.903
10 0 59309  42102.000000  0     759959.158   1383470.079   6694713.003
10 0 59309  42222.000000  0     856290.681    475146.716   6807957.079
10 0 59309  42342.000000  0     921704.719   -442881.734   6801596.370
10 0 59309  42462.000000  0     955035.523  -1354048.535   6675740.738
10 0 59309  42582.000000  0     955964.162  -2241890.345   6432586.318
10 0 59309  42702.000000  0     925019.827  -3090344.925   6076380.296
10 0 59309  42822.000000  0     863561.048  -3884044.120   5613350.067
10 0 59309  42942.000000  0     773738.283  -4608593.797   5051598.591
10 0 59309  43062.000000  0     658438.953  -5250838.972   4400969.551
10 0 59309  43182.000000  0     521214.889  -5799111.426   3672881.284
10 0 59309  43302.000000  0     366193.018  -6243452.369   2880129.032
10 0 59309  43422.000000  0     197971.702  -6575803.631   2036659.705
10 0 59309  43542.000000  0      21504.828  -6790162.487   1157324.005
10 0 59309  43662.000000  0    -158022.951  -6882699.214    257610.102
10 0 59309  43782.000000  0    -335328.018  -6851830.508   -646639.018
10 0 59309  43902.000000  0    -505161.473  -6698245.364  -1539514.541
10 0 59309  44022.000000  0    -662441.530  -6424885.013  -2405329.617
10 0 59309  44142.000000  0    -802381.761  -6036879.473  -3228900.995
10 0 59309  44262.000000  0    -920612.209  -5541441.172  -3995819.628
10 0 59309  44382.000000  0   -1013289.940  -4947717.902  -4692703.541
10 0 59309  44502.000000  0   -1077196.433  -4266611.029  -5307426.990
10 0 59309  44622.000000  0   -1109820.008  -3510564.664  -5829324.042
10 0 59309  44742.000000  0   -1109421.424  -2693330.165  -6249364.087
10 0 59309  44862.000000  0   -1075081.799  -1829710.761  -6560297.125
10 0 59309  44982.000000  0   -1006732.318   -935292.264  -6756767.244
10 0 59309  45102.000000  0    -905165.726    -26164.555  -6835395.418
10 0 59309  45222.000000  0    -772028.497    881362.688  -6794830.568
10 0 59309  45342.000000  0    -609794.295   1771044.842  -6635769.714
10 0 59309  45462.000000  0    -421719.911   2626985.489  -6360947.341
10 0 59309  45582.000000  0    -211783.379   3433914.591  -5975094.912
10 0 59309  45702.000000  0      15395.725   4177459.002  -5484868.455
10 0 59309  45822.000000  0     254651.674   4844398.529  -4898743.973
10 0 59309  45942.000000  0     500382.007   5422905.761  -4226882.847
10 0 59309  46062.000000  0     746669.807   5902764.468  -3480965.739
10 0 59309  46182.000000  0     987416.265   6275560.613  -2673997.379
10 0 59309  46302.000000  0    1216480.839   6534842.429  -1820084.930
10 0 59309  46422.000000  0    1427825.912   6676244.925   -934192.231
10 0 59309  46542.000000  0    1615662.553   6697574.383    -31874.310
10 0 59309  46662.000000  0    1774593.228   6598849.037    871002.177
10 0 59309  46782.000000  0    1899747.094   6382295.665   1758545.352
10 0 59309  46902.000000  0    1986905.614   6052302.502   2615125.857
10 0 59309  47022.000000  0    2032614.898   5615329.126   3425659.795
10 0 59309  47142.000000  0    2034281.748   5079775.706   4175881.908
10 0 59309  47262.000000  0    1990250.096   4455813.462   4852602.063
10 0 59309  47382.000000  0    1899857.303   3755179.831   5443939.287
10 0 59309  47502.000000  0    1763467.952   2990948.121   5939525.776
10 0 59309  47622.000000  0    1582486.697   2177277.610   6330684.458
10 0 59309  47742.000000  0    1359348.299   1329145.319   6610576.159
10 0 59309  47862.000000  0    1097485.704    462066.025   6774312.380
10 0 59309  47982.000000  0     801277.110   -408191.525   6819034.297
10 0 59309  48102.000000  0     475972.667  -1265890.257   6743961.180
10 0 59309  48222.000000  0     127601.226  -2095609.641   6550403.586
10 0 59309  48342.000000  0    -237141.440  -2882522.995   6241741.896
10 0 59309  48462.000000  0    -611020.195  -3612663.862   5823369.277
10 0 59309  48582.000000  0    -986401.017  -4273174.310   5302601.261
10 0 59309  48702.000000  0   -1355403.729  -4852534.751   4688556.246
10 0 59309  48822.000000  0   -1710065.995  -5340773.511   3992003.675
99
